{"type": "FeatureCollection", "features": [{"type": "Feature", "properties": {"norad_id": 26766, "name": "INTELSAT 10 (IS-10)", "group": "intelsat", "lat": -4.763328599844363, "lon": -85.68707660893318, "alt_km": 36092.09928044391, "timestamp": "2025-12-13T03:42:10.947467+00:00", "meta": {"OBJECT_NAME": "INTELSAT 10 (IS-10)", "OBJECT_ID": "2001-019A", "EPOCH": "2025-12-11T14:11:41.135712", "MEAN_MOTION": 0.99078808, "ECCENTRICITY": 0.00077853, "INCLINATION": 8.6274, "RA_OF_ASC_NODE": 61.1692, "ARG_OF_PERICENTER": 224.4537, "MEAN_ANOMALY": 151.554, "EPHEMERIS_TYPE": 0, "CLASSIFICATION_TYPE": "U", "NORAD_CAT_ID": 26766, "ELEMENT_SET_NO": 999, "REV_AT_EPOCH": 4372, "BSTAR": 0, "MEAN_MOTION_DOT": -2.86e-06, "MEAN_MOTION_DDOT": 0}, "tle": {"line1": "1 26766U 01019A   25345.59144833 -.00000286  00000+0  00000+0 0  9999", "line2": "2 26766   8.6274  61.1692 0007785 224.4537 151.5540  0.99078808 43721"}}, "geometry": {"type": "Point", "coordinates": [-85.68707660893318, -4.763328599844363]}}, {"type": "Feature", "properties": {"norad_id": 26900, "name": "INTELSAT 902 (IS-902)", "group": "intelsat", "lat": 1.3314363828528482, "lon": 87.46443866944983, "alt_km": 35804.459209861474, "timestamp": "2025-12-13T03:42:10.947491+00:00", "meta": {"OBJECT_NAME": "INTELSAT 902 (IS-902)", "OBJECT_ID": "2001-039A", "EPOCH": "2025-12-11T04:42:42.842016", "MEAN_MOTION": 1.00272526, "ECCENTRICITY": 0.00044264, "INCLINATION": 5.6424, "RA_OF_ASC_NODE": 74.0881, "ARG_OF_PERICENTER": 184.9809, "MEAN_ANOMALY": 201.6699, "EPHEMERIS_TYPE": 0, "CLASSIFICATION_TYPE": "U", "NORAD_CAT_ID": 26900, "ELEMENT_SET_NO": 999, "REV_AT_EPOCH": 8881, "BSTAR": 0, "MEAN_MOTION_DOT": -2.78e-06, "MEAN_MOTION_DDOT": 0}, "tle": {"line1": "1 26900U 01039A   25345.19632919 -.00000278  00000+0  00000+0 0  9995", "line2": "2 26900   5.6424  74.0881 0004426 184.9809 201.6699  1.00272526 88816"}}, "geometry": {"type": "Point", "coordinates": [87.46443866944983, 1.3314363828528482]}}, {"type": "Feature", "properties": {"norad_id": 27380, "name": "INTELSAT 904 (IS-904)", "group": "intelsat", "lat": 3.687166000878523, "lon": 105.96272379562073, "alt_km": 35791.71360879343, "timestamp": "2025-12-13T03:42:10.947506+00:00", "meta": {"OBJECT_NAME": "INTELSAT 904 (IS-904)", "OBJECT_ID": "2002-007A", "EPOCH": "2025-12-12T03:03:24.449184", "MEAN_MOTION": 1.002728, "ECCENTRICITY": 0.00015225, "INCLINATION": 6.4535, "RA_OF_ASC_NODE": 71.4393, "ARG_OF_PERICENTER": 225.8238, "MEAN_ANOMALY": 158.1601, "EPHEMERIS_TYPE": 0, "CLASSIFICATION_TYPE": "U", "NORAD_CAT_ID": 27380, "ELEMENT_SET_NO": 999, "REV_AT_EPOCH": 4989, "BSTAR": 0, "MEAN_MOTION_DOT": -2.17e-06, "MEAN_MOTION_DDOT": 0}, "tle": {"line1": "1 27380U 02007A   25346.12736631 -.00000217  00000+0  00000+0 0  9997", "line2": "2 27380   6.4535  71.4393 0001522 225.8238 158.1601  1.00272800 49894"}}, "geometry": {"type": "Point", "coordinates": [105.96272379562073, 3.687166000878523]}}, {"type": "Feature", "properties": {"norad_id": 27426, "name": "DIRECTV 5 (TEMPO 1)", "group": "intelsat", "lat": -3.363683579149969, "lon": 27.628814008302214, "alt_km": 35792.57420915887, "timestamp": "2025-12-13T03:42:10.947520+00:00", "meta": {"OBJECT_NAME": "DIRECTV 5 (TEMPO 1)", "OBJECT_ID": "2002-023A", "EPOCH": "2025-12-12T06:06:31.016160", "MEAN_MOTION": 1.00272024, "ECCENTRICITY": 0.00034777, "INCLINATION": 4.4013, "RA_OF_ASC_NODE": 77.6586, "ARG_OF_PERICENTER": 195.3534, "MEAN_ANOMALY": 149.6957, "EPHEMERIS_TYPE": 0, "CLASSIFICATION_TYPE": "U", "NORAD_CAT_ID": 27426, "ELEMENT_SET_NO": 999, "REV_AT_EPOCH": 8624, "BSTAR": 0, "MEAN_MOTION_DOT": -4.8e-07, "MEAN_MOTION_DDOT": 0}, "tle": {"line1": "1 27426U 02023A   25346.25452565 -.00000048  00000+0  00000+0 0  9993", "line2": "2 27426   4.4013  77.6586 0003477 195.3534 149.6957  1.00272024 86244"}}, "geometry": {"type": "Point", "coordinates": [27.628814008302214, -3.363683579149969]}}, {"type": "Feature", "properties": {"norad_id": 27438, "name": "INTELSAT 905 (IS-905)", "group": "intelsat", "lat": -5.959693218422382, "lon": 0.5776459841975407, "alt_km": 35786.67275695646, "timestamp": "2025-12-13T03:42:10.947533+00:00", "meta": {"OBJECT_NAME": "INTELSAT 905 (IS-905)", "OBJECT_ID": "2002-027A", "EPOCH": "2025-12-12T02:04:38.528256", "MEAN_MOTION": 1.00273145, "ECCENTRICITY": 0.00027303, "INCLINATION": 6.2844, "RA_OF_ASC_NODE": 72.0639, "ARG_OF_PERICENTER": 196.9989, "MEAN_ANOMALY": 65.9362, "EPHEMERIS_TYPE": 0, "CLASSIFICATION_TYPE": "U", "NORAD_CAT_ID": 27438, "ELEMENT_SET_NO": 999, "REV_AT_EPOCH": 4948, "BSTAR": 0, "MEAN_MOTION_DOT": 1.02e-06, "MEAN_MOTION_DDOT": 0}, "tle": {"line1": "1 27438U 02027A   25346.08655704  .00000102  00000+0  00000+0 0  9991", "line2": "2 27438   6.2844  72.0639 0002730 196.9989  65.9362  1.00273145 49489"}}, "geometry": {"type": "Point", "coordinates": [0.5776459841975407, -5.959693218422382]}}, {"type": "Feature", "properties": {"norad_id": 27445, "name": "GALAXY 3C (G-3C)", "group": "intelsat", "lat": -1.9811951568323025, "lon": 42.80188524830943, "alt_km": 35789.25337134435, "timestamp": "2025-12-13T03:42:10.947545+00:00", "meta": {"OBJECT_NAME": "GALAXY 3C (G-3C)", "OBJECT_ID": "2002-030A", "EPOCH": "2025-12-12T06:10:53.097600", "MEAN_MOTION": 1.00271461, "ECCENTRICITY": 0.00010934, "INCLINATION": 3.2633, "RA_OF_ASC_NODE": 80.5121, "ARG_OF_PERICENTER": 89.5592, "MEAN_ANOMALY": 268.9925, "EPHEMERIS_TYPE": 0, "CLASSIFICATION_TYPE": "U", "NORAD_CAT_ID": 27445, "ELEMENT_SET_NO": 999, "REV_AT_EPOCH": 4461, "BSTAR": 0, "MEAN_MOTION_DOT": -1.43e-06, "MEAN_MOTION_DDOT": 0}, "tle": {"line1": "1 27445U 02030A   25346.25755900 -.00000143  00000+0  00000+0 0  9997", "line2": "2 27445   3.2633  80.5121 0001093  89.5592 268.9925  1.00271461 44617"}}, "geometry": {"type": "Point", "coordinates": [42.80188524830943, -1.9811951568323025]}}, {"type": "Feature", "properties": {"norad_id": 27513, "name": "INTELSAT 906 (IS-906)", "group": "intelsat", "lat": 4.272534287158954, "lon": -158.1806140151463, "alt_km": 35774.85142086631, "timestamp": "2025-12-13T03:42:10.947558+00:00", "meta": {"OBJECT_NAME": "INTELSAT 906 (IS-906)", "OBJECT_ID": "2002-041A", "EPOCH": "2025-12-12T05:13:28.596576", "MEAN_MOTION": 1.00271482, "ECCENTRICITY": 0.00061774, "INCLINATION": 5.3275, "RA_OF_ASC_NODE": 75.2375, "ARG_OF_PERICENTER": 192.3727, "MEAN_ANOMALY": 316.0559, "EPHEMERIS_TYPE": 0, "CLASSIFICATION_TYPE": "U", "NORAD_CAT_ID": 27513, "ELEMENT_SET_NO": 999, "REV_AT_EPOCH": 8515, "BSTAR": 0, "MEAN_MOTION_DOT": 2.2e-07, "MEAN_MOTION_DDOT": 0}, "tle": {"line1": "1 27513U 02041A   25346.21769209  .00000022  00000+0  00000+0 0  9993", "line2": "2 27513   5.3275  75.2375 0006177 192.3727 316.0559  1.00271482 85156"}}, "geometry": {"type": "Point", "coordinates": [-158.1806140151463, 4.272534287158954]}}, {"type": "Feature", "properties": {"norad_id": 27954, "name": "GALAXY 13 (HORIZONS-1)", "group": "intelsat", "lat": -0.9213647520400233, "lon": -12.352209628899711, "alt_km": 35786.801333471085, "timestamp": "2025-12-13T03:42:10.947570+00:00", "meta": {"OBJECT_NAME": "GALAXY 13 (HORIZONS-1)", "OBJECT_ID": "2003-044A", "EPOCH": "2025-12-12T05:55:09.604416", "MEAN_MOTION": 1.00271326, "ECCENTRICITY": 0.00020458, "INCLINATION": 0.9343, "RA_OF_ASC_NODE": 86.4755, "ARG_OF_PERICENTER": 167.2764, "MEAN_ANOMALY": 126.2296, "EPHEMERIS_TYPE": 0, "CLASSIFICATION_TYPE": "U", "NORAD_CAT_ID": 27954, "ELEMENT_SET_NO": 999, "REV_AT_EPOCH": 4469, "BSTAR": 0, "MEAN_MOTION_DOT": 1.42e-06, "MEAN_MOTION_DDOT": 0}, "tle": {"line1": "1 27954U 03044A   25346.24663894  .00000142  00000+0  00000+0 0  9995", "line2": "2 27954   0.9343  86.4755 0002045 167.2764 126.2296  1.00271326 44690"}}, "geometry": {"type": "Point", "coordinates": [-12.352209628899711, -0.9213647520400233]}}, {"type": "Feature", "properties": {"norad_id": 28358, "name": "INTELSAT 10-02", "group": "intelsat", "lat": 0.023845921827962812, "lon": 136.65995459029463, "alt_km": 35791.10015167412, "timestamp": "2025-12-13T03:42:10.947582+00:00", "meta": {"OBJECT_NAME": "INTELSAT 10-02", "OBJECT_ID": "2004-022A", "EPOCH": "2025-12-12T01:29:25.949760", "MEAN_MOTION": 1.00271277, "ECCENTRICITY": 0.00012166, "INCLINATION": 0.0234, "RA_OF_ASC_NODE": 65.5197, "ARG_OF_PERICENTER": 235.151, "MEAN_ANOMALY": 161.7375, "EPHEMERIS_TYPE": 0, "CLASSIFICATION_TYPE": "U", "NORAD_CAT_ID": 28358, "ELEMENT_SET_NO": 999, "REV_AT_EPOCH": 7868, "BSTAR": 0, "MEAN_MOTION_DOT": -2e-08, "MEAN_MOTION_DDOT": 0}, "tle": {"line1": "1 28358U 04022A   25346.06210590 -.00000002  00000+0  00000+0 0  9998", "line2": "2 28358   0.0234  65.5197 0001216 235.1510 161.7375  1.00271277 78683"}}, "geometry": {"type": "Point", "coordinates": [136.65995459029463, 0.023845921827962812]}}, {"type": "Feature", "properties": {"norad_id": 28626, "name": "XM-3 (RHYTHM)", "group": "intelsat", "lat": 0.014728755634750056, "lon": -110.03277502560168, "alt_km": 36161.35994886107, "timestamp": "2025-12-13T03:42:10.947595+00:00", "meta": {"OBJECT_NAME": "XM-3 (RHYTHM)", "OBJECT_ID": "2005-008A", "EPOCH": "2025-12-12T02:03:00.235296", "MEAN_MOTION": 0.98952726, "ECCENTRICITY": 0.0001522, "INCLINATION": 0.1732, "RA_OF_ASC_NODE": 81.4641, "ARG_OF_PERICENTER": 269.4596, "MEAN_ANOMALY": 238.2962, "EPHEMERIS_TYPE": 0, "CLASSIFICATION_TYPE": "U", "NORAD_CAT_ID": 28626, "ELEMENT_SET_NO": 999, "REV_AT_EPOCH": 4074, "BSTAR": 0, "MEAN_MOTION_DOT": -1.71e-06, "MEAN_MOTION_DDOT": 0}, "tle": {"line1": "1 28626U 05008A   25346.08541939 -.00000171  00000+0  00000+0 0  9994", "line2": "2 28626   0.1732  81.4641 0001522 269.4596 238.2962  0.98952726 40749"}}, "geometry": {"type": "Point", "coordinates": [-110.03277502560168, 0.014728755634750056]}}]}